Epoch 2016 Feb  3.0 TT = JDT 2457421.5   Earth MOID: 0.9159
M 359.86458              (2000.0)            P               Q
n   0.28921003     Peri.   78.60041     -0.81445273     -0.57147672     
a   2.26461204     Node    66.47019      0.48045879     -0.76125038     
e   0.1647089      Incl.    6.28708      0.32530921     -0.30645099     
P   3.41           H   19.4     G   0.15   q 1.89161005  Q 2.63761402
From 3 observations 2016 Feb. 3 (51.5 min); mean residual 0".167.
# State vector (heliocentric ecliptic J2000):
#   -1.537007789789   1.083799914474   0.202926256245 AU
#   -7.745380087265 -11.050844873227   0.296319136881 mAU/day
# MOIDs: Me  1.5398 Ve  1.1746 Ea  0.9159 Ma  0.2650
# MOIDs: Ju  2.3949 Sa  6.9023 Ur 16.3625 Ne 27.3398
# Elements written: 17 Oct 2016 23:03:39 (JD 2457679.460868)
# Full range of obs: 2016 Feb. 3 (51.5 min) (3 observations)
# Find_Orb ver: Sep  6 2012 00:42:31
# Perturbers: 00000000 (unperturbed orbit)
# Tisserand relative to Earth: 3.39234
# Tisserand relative to Jupiter: 3.59124
# Tisserand relative to Neptune: 13.81589
# %20$Name=PLF3003  $Ty=2016  $Tm=02  $Td=03.468223  $MA=359.86459
#  $ecc=0.1647090  $Eqnx=2000.
#  $a=2.2646120  $Peri=78.60041  $Node=66.47019  $Incl=6.28708
#  $EpJD=2457421.500  $q=1.891610  $T=2457421.968223  $H=19.4
Orbital elements: 
PST0017
   Perihelion 2016 Feb 9.686485 TT = 16:28:32 (JD 2457428.186485)
Epoch 2016 Feb 10.0 TT = JDT 2457428.5   Earth MOID: 0.9039
M   0.08498              (2000.0)            P               Q
n   0.27107243     Peri.  151.13679     -0.83451304     -0.55098090     
a   2.36453536     Node   355.42585      0.49845932     -0.75275423     
e   0.2000077      Incl.    2.03480      0.23478986     -0.36025143     
P   3.64           H   19.7     G   0.15   q 1.89160997  Q 2.83746074
From 4 observations 2016 Feb. 9 (58.1 min); mean residual 0".147.
# State vector (heliocentric ecliptic J2000):
#   -1.580936563667   1.038165900740   0.032288088999 AU
#   -7.527430347262 -11.440185013711  -0.426492197194 mAU/day
# MOIDs: Me  1.5415 Ve  1.1739 Ea  0.9039 Ma  0.2290
# MOIDs: Ju  2.1744 Sa  6.7834 Ur 16.3492 Ne 27.1362
# Elements written: 17 Oct 2016 23:03:39 (JD 2457679.460868)
# Full range of obs: 2016 Feb. 9 (58.1 min) (4 observations)
# Find_Orb ver: Sep  6 2012 00:42:31
# Perturbers: 00000000 (unperturbed orbit)
# Tisserand relative to Earth: 3.43428
# Tisserand relative to Jupiter: 3.52071
# Tisserand relative to Neptune: 13.26583
# %20$Name=PST0017  $Ty=2016  $Tm=02  $Td=09.686484  $MA=0.08499
#  $ecc=0.2000077  $Eqnx=2000.
#  $a=2.3645354  $Peri=151.13679  $Node=355.42585  $Incl=2.03481
#  $EpJD=2457428.500  $q=1.891610  $T=2457428.186485  $H=19.7
Orbital elements: 
PST0019
   Perihelion 2016 Feb 9.544668 TT = 13:04:19 (JD 2457428.044668)
Epoch 2016 Feb 10.0 TT = JDT 2457428.5   Earth MOID: 0.9042
M   0.12156              (2000.0)            P               Q
n   0.26697914     Peri.   23.01883     -0.83463823     -0.54880402     
a   2.38864252     Node   123.61299      0.49619807     -0.78608609     
e   0.2080815      Incl.    3.22365      0.23909514     -0.28439899     
P   3.69           H   18.9     G   0.15   q 1.89161009  Q 2.88567494
From 4 observations 2016 Feb. 9 (58.1 min); mean residual 0".087.
# State vector (heliocentric ecliptic J2000):
#   -1.582238218779   1.035838089153   0.041918864398 AU
#   -7.513047236043 -11.490598335594   0.710669684148 mAU/day
# MOIDs: Me  1.5414 Ve  1.1737 Ea  0.9042 Ma  0.2275
# MOIDs: Ju  2.1273 Sa  6.7456 Ur 16.3479 Ne 27.0906
# Elements written: 17 Oct 2016 23:03:39 (JD 2457679.460868)
# Full range of obs: 2016 Feb. 9 (58.1 min) (4 observations)
# Find_Orb ver: Sep  6 2012 00:42:31
# Perturbers: 00000000 (unperturbed orbit)
# Tisserand relative to Earth: 3.43725
# Tisserand relative to Jupiter: 3.50168
# Tisserand relative to Neptune: 13.13881
# %20$Name=PST0019  $Ty=2016  $Tm=02  $Td=09.544667  $MA=0.12156
#  $ecc=0.2080815  $Eqnx=2000.
#  $a=2.3886425  $Peri=23.01883  $Node=123.61300  $Incl=3.22365
#  $EpJD=2457428.500  $q=1.891610  $T=2457428.044668  $H=18.9
Orbital elements: 
PST0021
   Perihelion 2016 Feb 9.686970 TT = 16:29:14 (JD 2457428.186970)
Epoch 2016 Feb 10.0 TT = JDT 2457428.5   Earth MOID: 0.9042
M   0.07904              (2000.0)            P               Q
n   0.25252553     Peri.   31.23319     -0.83506906     -0.54887671     
a   2.47893904     Node   115.43155      0.49583774     -0.78030186     
e   0.2369276      Incl.    2.36943      0.23833714     -0.29977217     
P   3.90           H   19.9     G   0.15   q 1.89160985  Q 3.06626823
From 4 observations 2016 Feb. 9 (58.1 min); mean residual 0".271.
# State vector (heliocentric ecliptic J2000):
#   -1.582011485088   1.036230807934   0.040704522462 AU
#   -7.613428783791 -11.631504380644   0.491183770937 mAU/day
# MOIDs: Me  1.5422 Ve  1.1737 Ea  0.9042 Ma  0.2277
# MOIDs: Ju  1.9492 Sa  6.6110 Ur 16.3367 Ne 26.9169
# Elements written: 17 Oct 2016 23:03:39 (JD 2457679.460868)
# Full range of obs: 2016 Feb. 9 (58.1 min) (4 observations)
# Find_Orb ver: Sep  6 2012 00:42:31
# Perturbers: 00000000 (unperturbed orbit)
# Tisserand relative to Earth: 3.46005
# Tisserand relative to Jupiter: 3.43901
# Tisserand relative to Neptune: 12.68721
# %20$Name=PST0021  $Ty=2016  $Tm=02  $Td=09.686969  $MA=0.07905
#  $ecc=0.2369276  $Eqnx=2000.
#  $a=2.4789390  $Peri=31.23320  $Node=115.43155  $Incl=2.36944
#  $EpJD=2457428.500  $q=1.891610  $T=2457428.186970  $H=19.9
Orbital elements: 
PST0022
   Perihelion 2016 Feb 9.504440 TT = 12:06:23 (JD 2457428.004440)
Epoch 2016 Feb 10.0 TT = JDT 2457428.5                  Find_Orb
M   0.09615              (2000.0)            P               Q
n   0.19403789     Peri.   23.66373     -0.85692124     -0.51263160     
a   2.95491511     Node   125.38829      0.46175211     -0.80984803     
e   0.0358969      Incl.    3.78408      0.22906542     -0.28522797     
P   5.08           H   16.3     G   0.15   q 2.84884256  Q 3.06098767
From 4 observations 2016 Feb. 9 (58.1 min); mean residual 0".059.
# State vector (heliocentric ecliptic J2000):
#   -2.443865030327   1.462083083659   0.075773543871 AU
#   -5.302049750648  -8.893558651536   0.626543954883 mAU/day
# MOIDs: Me  2.4693 Ve  2.1306 Ea  1.8606 Ma  1.1833
# MOIDs: Ju  1.9183 Sa  6.1189 Ur 15.4322 Ne 26.8161
# Elements written: 17 Oct 2016 23:03:39 (JD 2457679.460868)
# Full range of obs: 2016 Feb. 9 (58.1 min) (4 observations)
# Find_Orb ver: Sep  6 2012 00:42:31
# Perturbers: 00000000 (unperturbed orbit)
# Tisserand relative to Earth: 3.76669
# Tisserand relative to Jupiter: 3.26381
# Tisserand relative to Neptune: 10.80112
# %20$Name=PST0022  $Ty=2016  $Tm=02  $Td=09.504439  $MA=0.09616
#  $ecc=0.0358970  $Eqnx=2000.
#  $a=2.9549151  $Peri=23.66374  $Node=125.38829  $Incl=3.78408
#  $EpJD=2457428.500  $q=2.848843  $T=2457428.004440  $H=16.3
Orbital elements: 
PST0023
   Perihelion 2016 Feb 7.181660 TT =  4:21:35 (JD 2457425.681660)
Epoch 2016 Feb 10.0 TT = JDT 2457428.5                  Find_Orb
M   0.67427              (2000.0)            P               Q
n   0.23924405     Peri.  135.85814     -0.84642284     -0.53245867     
a   2.56985496     Node    11.97669      0.47802400     -0.76593944     
e   0.0113447      Incl.    2.06885      0.23465168     -0.36031170     
P   4.12           H   17.7     G   0.15   q 2.54070062  Q 2.59900931
From 4 observations 2016 Feb. 9 (58.1 min); mean residual 0".216.
# State vector (heliocentric ecliptic J2000):
#   -2.166639287771   1.325467913578   0.063080526364 AU
#   -5.669068046348  -9.250440556622  -0.284392110677 mAU/day
# MOIDs: Me  2.1092 Ve  1.8225 Ea  1.5491 Ma  0.8752
# MOIDs: Ju  2.3624 Sa  6.4720 Ur 15.7438 Ne 27.2359
# Elements written: 17 Oct 2016 23:03:39 (JD 2457679.460868)
# Full range of obs: 2016 Feb. 9 (58.1 min) (4 observations)
# Find_Orb ver: Sep  6 2012 00:42:31
# Perturbers: 00000000 (unperturbed orbit)
# Tisserand relative to Earth: 3.59298
# Tisserand relative to Jupiter: 3.42928
# Tisserand relative to Neptune: 12.28493
# %20$Name=PST0023  $Ty=2016  $Tm=02  $Td=07.181660  $MA=0.67427
#  $ecc=0.0113447  $Eqnx=2000.
#  $a=2.5698550  $Peri=135.85814  $Node=11.97670  $Incl=2.06885
#  $EpJD=2457428.500  $q=2.540701  $T=2457425.681660  $H=17.7
Orbital elements: 
UKR0005
   Perihelion 2015 Jul 27.801138 TT = 19:13:38 (JD 2457231.301138)
Epoch 2016 Feb 10.0 TT = JDT 2457428.5   Earth MOID: 0.6123   Ma: 0.0844
M  60.76115              (2000.0)            P               Q
n   0.30812124     Peri.  340.72926      0.53497556     -0.84465451     
a   2.17097567     Node    76.92435      0.77768516      0.48353624     
e   0.2627609      Incl.    1.11596      0.33016198      0.22967683     
P   3.20           H   18.1     G   0.15   q 1.60052800  Q 2.74142334
From 4 observations 2016 Feb. 9 (58.1 min); mean residual 0".136.
# State vector (heliocentric ecliptic J2000):
#   -1.722522363022   1.066802677211   0.037385568022 AU
#   -9.055232751681  -8.586566059916   0.133978061957 mAU/day
# MOIDs: Me  1.2894 Ve  0.8787 Ea  0.6123 Ma  0.0844
# MOIDs: Ju  2.6197 Sa  7.1167 Ur 15.8333 Ne 27.5777
# Elements written: 17 Oct 2016 23:03:39 (JD 2457679.460868)
# Full range of obs: 2016 Feb. 9 (58.1 min) (4 observations)
# Find_Orb ver: Sep  6 2012 00:42:31
# Perturbers: 00000000 (unperturbed orbit)
# Tisserand relative to Earth: 3.30338
# Tisserand relative to Jupiter: 3.64299
# Tisserand relative to Neptune: 14.36887
# %20$Name=UKR0005  $Ty=2015  $Tm=07  $Td=27.801137  $MA=60.76116
#  $ecc=0.2627610  $Eqnx=2000.
#  $a=2.1709757  $Peri=340.72926  $Node=76.92435  $Incl=1.11596
#  $EpJD=2457428.500  $q=1.600528  $T=2457231.301138  $H=18.1
Orbital elements: 
UKR0006
   Perihelion 2017 Nov 21.890765 TT = 21:22:42 (JD 2458079.390765)
Epoch 2016 Feb 10.0 TT = JDT 2457428.5                  Find_Orb
M 180.19701              (2000.0)            P               Q
n   0.27624141     Peri.  194.07922      0.86228680      0.50248954     
